[{"OBJECT_NAME":"STARLINK-31573","OBJECT_ID":"2024-057Q","EPOCH":"2025-08-20T10:16:20.135712","MEAN_MOTION":15.27582295,"ECCENTRICITY":0.0001433,"INCLINATION":43.0014,"RA_OF_ASC_NODE":243.2629,"ARG_OF_PERICENTER":262.8201,"MEAN_ANOMALY":97.2488,"EPHEMERIS_TYPE":0,"CLASSIFICATION_TYPE":"U","NORAD_CAT_ID":59334,"ELEMENT_SET_NO":999,"REV_AT_EPOCH":8024,"BSTAR":4.1477e-5,"MEAN_MOTION_DOT":8.79e-6,"MEAN_MOTION_DDOT":0},{"OBJECT_NAME":"STARLINK-31588","OBJECT_ID":"2024-057R","EPOCH":"2025-08-20T07:17:16.561824","MEAN_MOTION":15.27580424,"ECCENTRICITY":0.0001912,"INCLINATION":43.0004,"RA_OF_ASC_NODE":244.0555,"ARG_OF_PERICENTER":273.9155,"MEAN_ANOMALY":86.1478,"EPHEMERIS_TYPE":0,"CLASSIFICATION_TYPE":"U","NORAD_CAT_ID":59335,"ELEMENT_SET_NO":999,"REV_AT_EPOCH":8022,"BSTAR":2.7213e-5,"MEAN_MOTION_DOT":4.87e-6,"MEAN_MOTION_DDOT":0},{"OBJECT_NAME":"STARLINK-31596","OBJECT_ID":"2024-057S","EPOCH":"2025-08-20T10:31:08.484096","MEAN_MOTION":15.27583792,"ECCENTRICITY":0.0001335,"INCLINATION":43,"RA_OF_ASC_NODE":243.3449,"ARG_OF_PERICENTER":263.412,"MEAN_ANOMALY":96.658,"EPHEMERIS_TYPE":0,"CLASSIFICATION_TYPE":"U","NORAD_CAT_ID":59336,"ELEMENT_SET_NO":999,"REV_AT_EPOCH":8030,"BSTAR":2.5702e-5,"MEAN_MOTION_DOT":4.45e-6,"MEAN_MOTION_DDOT":0},{"OBJECT_NAME":"STARLINK-31612","OBJECT_ID":"2024-057T","EPOCH":"2025-08-20T07:56:08.056320","MEAN_MOTION":15.27581631,"ECCENTRICITY":9.47e-5,"INCLINATION":42.9984,"RA_OF_ASC_NODE":244.2545,"ARG_OF_PERICENTER":271.6143,"MEAN_ANOMALY":88.46,"EPHEMERIS_TYPE":0,"CLASSIFICATION_TYPE":"U","NORAD_CAT_ID":59337,"ELEMENT_SET_NO":999,"REV_AT_EPOCH":8022,"BSTAR":2.3839e-5,"MEAN_MOTION_DOT":3.94e-6,"MEAN_MOTION_DDOT":0},{"OBJECT_NAME":"STARLINK-31550","OBJECT_ID":"2024-057U","EPOCH":"2025-08-20T11:41:27.591360","MEAN_MOTION":15.27578434,"ECCENTRICITY":9.33e-5,"INCLINATION":43.0016,"RA_OF_ASC_NODE":243.7099,"ARG_OF_PERICENTER":269.8531,"MEAN_ANOMALY":90.2214,"EPHEMERIS_TYPE":0,"CLASSIFICATION_TYPE":"U","NORAD_CAT_ID":59338,"ELEMENT_SET_NO":999,"REV_AT_EPOCH":8035,"BSTAR":-8.9456e-6,"MEAN_MOTION_DOT":-5.08e-6,"MEAN_MOTION_DDOT":0},{"OBJECT_NAME":"STARLINK-31473","OBJECT_ID":"2024-057V","EPOCH":"2025-08-20T07:39:28.924128","MEAN_MOTION":15.27590418,"ECCENTRICITY":0.0001141,"INCLINATION":42.9987,"RA_OF_ASC_NODE":244.1696,"ARG_OF_PERICENTER":272.0431,"MEAN_ANOMALY":88.029,"EPHEMERIS_TYPE":0,"CLASSIFICATION_TYPE":"U","NORAD_CAT_ID":59339,"ELEMENT_SET_NO":999,"REV_AT_EPOCH":8022,"BSTAR":-0.00013081,"MEAN_MOTION_DOT":-3.861e-5,"MEAN_MOTION_DDOT":0},{"OBJECT_NAME":"STARLINK-31562","OBJECT_ID":"2024-057W","EPOCH":"2025-08-20T08:23:10.481568","MEAN_MOTION":15.27580521,"ECCENTRICITY":0.0001439,"INCLINATION":43.0019,"RA_OF_ASC_NODE":259.1206,"ARG_OF_PERICENTER":271.6471,"MEAN_ANOMALY":88.4216,"EPHEMERIS_TYPE":0,"CLASSIFICATION_TYPE":"U","NORAD_CAT_ID":59340,"ELEMENT_SET_NO":999,"REV_AT_EPOCH":8010,"BSTAR":4.7801e-5,"MEAN_MOTION_DOT":1.053e-5,"MEAN_MOTION_DDOT":0},{"OBJECT_NAME":"STARLINK-31600","OBJECT_ID":"2024-057X","EPOCH":"2025-08-19T12:55:49.750464","MEAN_MOTION":15.2758088,"ECCENTRICITY":0.0001178,"INCLINATION":43.0019,"RA_OF_ASC_NODE":256.4225,"ARG_OF_PERICENTER":261.9366,"MEAN_ANOMALY":98.1352,"EPHEMERIS_TYPE":0,"CLASSIFICATION_TYPE":"U","NORAD_CAT_ID":59341,"ELEMENT_SET_NO":999,"REV_AT_EPOCH":7883,"BSTAR":4.3376e-5,"MEAN_MOTION_DOT":9.32e-6,"MEAN_MOTION_DDOT":0},{"OBJECT_NAME":"STARLINK-31628","OBJECT_ID":"2024-057Y","EPOCH":"2025-08-20T09:43:14.204064","MEAN_MOTION":15.2758842,"ECCENTRICITY":0.0001201,"INCLINATION":43.0005,"RA_OF_ASC_NODE":243.9526,"ARG_OF_PERICENTER":277.6954,"MEAN_ANOMALY":82.3761,"EPHEMERIS_TYPE":0,"CLASSIFICATION_TYPE":"U","NORAD_CAT_ID":59342,"ELEMENT_SET_NO":999,"REV_AT_EPOCH":8034,"BSTAR":3.7184e-5,"MEAN_MOTION_DOT":7.62e-6,"MEAN_MOTION_DDOT":0},{"OBJECT_NAME":"STARLINK-31605","OBJECT_ID":"2024-060A","EPOCH":"2025-08-20T11:30:20.672352","MEAN_MOTION":15.27584404,"ECCENTRICITY":0.0001366,"INCLINATION":42.9994,"RA_OF_ASC_NODE":305.5164,"ARG_OF_PERICENTER":266.512,"MEAN_ANOMALY":93.5575,"EPHEMERIS_TYPE":0,"CLASSIFICATION_TYPE":"U","NORAD_CAT_ID":59348,"ELEMENT_SET_NO":999,"REV_AT_EPOCH":7934,"BSTAR":4.3249e-5,"MEAN_MOTION_DOT":9.28e-6,"MEAN_MOTION_DDOT":0},{"OBJECT_NAME":"STARLINK-31532","OBJECT_ID":"2024-060B","EPOCH":"2025-08-20T07:19:05.577024","MEAN_MOTION":15.27585266,"ECCENTRICITY":0.0001594,"INCLINATION":43.0018,"RA_OF_ASC_NODE":317.1769,"ARG_OF_PERICENTER":273.3635,"MEAN_ANOMALY":86.7035,"EPHEMERIS_TYPE":0,"CLASSIFICATION_TYPE":"U","NORAD_CAT_ID":59349,"ELEMENT_SET_NO":999,"REV_AT_EPOCH":7930,"BSTAR":0.00010552,"MEAN_MOTION_DOT":2.643e-5,"MEAN_MOTION_DDOT":0},{"OBJECT_NAME":"STARLINK-31593","OBJECT_ID":"2024-060C","EPOCH":"2025-08-20T12:53:09.379968","MEAN_MOTION":15.2758281,"ECCENTRICITY":6.99e-5,"INCLINATION":43.0004,"RA_OF_ASC_NODE":315.4745,"ARG_OF_PERICENTER":254.4899,"MEAN_ANOMALY":105.5876,"EPHEMERIS_TYPE":0,"CLASSIFICATION_TYPE":"U","NORAD_CAT_ID":59350,"ELEMENT_SET_NO":999,"REV_AT_EPOCH":7930,"BSTAR":4.5663e-5,"MEAN_MOTION_DOT":9.95e-6,"MEAN_MOTION_DDOT":0},{"OBJECT_NAME":"STARLINK-31555","OBJECT_ID":"2024-060D","EPOCH":"2025-08-20T12:12:40.139424","MEAN_MOTION":15.27573211,"ECCENTRICITY":7.11e-5,"INCLINATION":42.9997,"RA_OF_ASC_NODE":316.1256,"ARG_OF_PERICENTER":246.0983,"MEAN_ANOMALY":113.9794,"EPHEMERIS_TYPE":0,"CLASSIFICATION_TYPE":"U","NORAD_CAT_ID":59351,"ELEMENT_SET_NO":999,"REV_AT_EPOCH":7933,"BSTAR":0.00010721,"MEAN_MOTION_DOT":2.689e-5,"MEAN_MOTION_DDOT":0},{"OBJECT_NAME":"STARLINK-31561","OBJECT_ID":"2024-060E","EPOCH":"2025-08-20T06:32:49.091424","MEAN_MOTION":15.27585194,"ECCENTRICITY":0.000158,"INCLINATION":43.0031,"RA_OF_ASC_NODE":316.9328,"ARG_OF_PERICENTER":274.8005,"MEAN_ANOMALY":85.2667,"EPHEMERIS_TYPE":0,"CLASSIFICATION_TYPE":"U","NORAD_CAT_ID":59352,"ELEMENT_SET_NO":999,"REV_AT_EPOCH":7924,"BSTAR":-2.1576e-5,"MEAN_MOTION_DOT":-8.56e-6,"MEAN_MOTION_DDOT":0},{"OBJECT_NAME":"STARLINK-31413","OBJECT_ID":"2024-060F","EPOCH":"2025-08-20T06:53:11.744736","MEAN_MOTION":15.27546671,"ECCENTRICITY":9.85e-5,"INCLINATION":43.0018,"RA_OF_ASC_NODE":317.0364,"ARG_OF_PERICENTER":243.5034,"MEAN_ANOMALY":116.5716,"EPHEMERIS_TYPE":0,"CLASSIFICATION_TYPE":"U","NORAD_CAT_ID":59353,"ELEMENT_SET_NO":999,"REV_AT_EPOCH":7925,"BSTAR":0.00023367,"MEAN_MOTION_DOT":6.167e-5,"MEAN_MOTION_DDOT":0},{"OBJECT_NAME":"STARLINK-31422","OBJECT_ID":"2024-060G","EPOCH":"2025-08-20T12:44:06.825984","MEAN_MOTION":15.27584491,"ECCENTRICITY":6.43e-5,"INCLINATION":43.0017,"RA_OF_ASC_NODE":316.2882,"ARG_OF_PERICENTER":243.2938,"MEAN_ANOMALY":116.7848,"EPHEMERIS_TYPE":0,"CLASSIFICATION_TYPE":"U","NORAD_CAT_ID":59354,"ELEMENT_SET_NO":999,"REV_AT_EPOCH":7928,"BSTAR":4.7118e-5,"MEAN_MOTION_DOT":1.035e-5,"MEAN_MOTION_DDOT":0},{"OBJECT_NAME":"STARLINK-31416","OBJECT_ID":"2024-060H","EPOCH":"2025-08-20T12:07:08.683104","MEAN_MOTION":15.27571913,"ECCENTRICITY":0.0001356,"INCLINATION":43.0021,"RA_OF_ASC_NODE":316.0914,"ARG_OF_PERICENTER":271.4816,"MEAN_ANOMALY":88.5881,"EPHEMERIS_TYPE":0,"CLASSIFICATION_TYPE":"U","NORAD_CAT_ID":59355,"ELEMENT_SET_NO":999,"REV_AT_EPOCH":7928,"BSTAR":3.0902e-5,"MEAN_MOTION_DOT":5.88e-6,"MEAN_MOTION_DDOT":0}]
