STARLINK-31573          
1 59334U 24057Q   25232.42801083  .00000879  00000+0  41477-4 0  9992
2 59334  43.0014 243.2629 0001433 262.8201  97.2488 15.27582295 80246
STARLINK-31588          
1 59335U 24057R   25232.30366391  .00000487  00000+0  27213-4 0  9995
2 59335  43.0004 244.0555 0001912 273.9155  86.1478 15.27580424 80222
STARLINK-31596          
1 59336U 24057S   25232.43829264  .00000445  00000+0  25702-4 0  9998
2 59336  43.0000 243.3449 0001335 263.4120  96.6580 15.27583792 80308
STARLINK-31612          
1 59337U 24057T   25232.33064880  .00000394  00000+0  23839-4 0  9995
2 59337  42.9984 244.2545 0000947 271.6143  88.4600 15.27581631 80222
STARLINK-31550          
1 59338U 24057U   25232.48712490 -.00000508  00000+0 -89456-5 0  9996
2 59338  43.0016 243.7099 0000933 269.8531  90.2214 15.27578434 80357
STARLINK-31473          
1 59339U 24057V   25232.31908477 -.00003861  00000+0 -13081-3 0  9995
2 59339  42.9987 244.1696 0001141 272.0431  88.0290 15.27590418 80229
STARLINK-31562          
1 59340U 24057W   25232.34942687  .00001053  00000+0  47801-4 0  9998
2 59340  43.0019 259.1206 0001439 271.6471  88.4216 15.27580521 80104
STARLINK-31600          
1 59341U 24057X   25231.53877026  .00000932  00000+0  43376-4 0  9991
2 59341  43.0019 256.4225 0001178 261.9366  98.1352 15.27580880 78835
STARLINK-31628          
1 59342U 24057Y   25232.40502551  .00000762  00000+0  37184-4 0  9998
2 59342  43.0005 243.9526 0001201 277.6954  82.3761 15.27588420 80346
STARLINK-31605          
1 59348U 24060A   25232.47940593  .00000928  00000+0  43249-4 0  9990
2 59348  42.9994 305.5164 0001366 266.5120  93.5575 15.27584404 79347
STARLINK-31532          
1 59349U 24060B   25232.30492566  .00002643  00000+0  10552-3 0  9991
2 59349  43.0018 317.1769 0001594 273.3635  86.7035 15.27585266 79305
STARLINK-31593          
1 59350U 24060C   25232.53691412  .00000995  00000+0  45663-4 0  9999
2 59350  43.0004 315.4745 0000699 254.4899 105.5876 15.27582810 79309
STARLINK-31555          
1 59351U 24060D   25232.50879791  .00002689  00000+0  10721-3 0  9993
2 59351  42.9997 316.1256 0000711 246.0983 113.9794 15.27573211 79330
STARLINK-31561          
1 59352U 24060E   25232.27279041 -.00000856  00000+0 -21576-4 0  9997
2 59352  43.0031 316.9328 0001580 274.8005  85.2667 15.27585194 79242
STARLINK-31413          
1 59353U 24060F   25232.28694149  .00006167  00000+0  23367-3 0  9997
2 59353  43.0018 317.0364 0000985 243.5034 116.5716 15.27546671 79254
STARLINK-31422          
1 59354U 24060G   25232.53063456  .00001035  00000+0  47118-4 0  9997
2 59354  43.0017 316.2882 0000643 243.2938 116.7848 15.27584491 79284
STARLINK-31416          
1 59355U 24060H   25232.50496161  .00000588  00000+0  30902-4 0  9993
2 59355  43.0021 316.0914 0001356 271.4816  88.5881 15.27571913 79282
